{
  "norad_id": 68502,
  "name": "ICEYE-X76",
  "history": [
    {
      "epoch": "2026-04-13T22:11:44.031552Z",
      "apogee_km": 594.1732150103308,
      "perigee_km": 592.442065877216,
      "latitude_deg": 7.996476356596954e-05,
      "longitude_deg": -111.84998379641046,
      "height_km": 597.2004628612196,
      "semi_major_axis_km": 6971.444640443773,
      "eccentricity": 0.00012416,
      "inclination_deg": 97.7575,
      "raan_deg": 63.1921,
      "arg_perigee_deg": 169.701,
      "mean_anomaly_deg": 190.4235,
      "mean_motion_rev_day": 14.91483961
    },
    {
      "epoch": "2026-04-16T14:36:02.234880Z",
      "apogee_km": 594.3347360809985,
      "perigee_km": 592.2349438228048,
      "latitude_deg": 4.185566330104444e-05,
      "longitude_deg": 2.069057188525455,
      "height_km": 597.3212728794712,
      "semi_major_axis_km": 6971.421839951901,
      "eccentricity": 0.0001506,
      "inclination_deg": 97.7581,
      "raan_deg": 65.832,
      "arg_perigee_deg": 161.4934,
      "mean_anomaly_deg": 198.634,
      "mean_motion_rev_day": 14.91491278
    },
    {
      "epoch": "2026-04-17T14:45:08.850528Z",
      "apogee_km": 594.3864333718357,
      "perigee_km": 592.1642259776281,
      "latitude_deg": 2.9293888310409567e-05,
      "longitude_deg": -0.21048558620205018,
      "height_km": 597.3592120416656,
      "semi_major_axis_km": 6971.412329674732,
      "eccentricity": 0.00015938,
      "inclination_deg": 97.7583,
      "raan_deg": 66.8219,
      "arg_perigee_deg": 159.8582,
      "mean_anomaly_deg": 200.27,
      "mean_motion_rev_day": 14.9149433
    },
    {
      "epoch": "2026-04-21T13:44:56.795712Z",
      "apogee_km": 594.5920568535248,
      "perigee_km": 591.8732226940147,
      "latitude_deg": -7.564800882940712e-06,
      "longitude_deg": 14.83246943150528,
      "height_km": 597.4621757688014,
      "semi_major_axis_km": 6971.369639773769,
      "eccentricity": 0.000195,
      "inclination_deg": 97.7586,
      "raan_deg": 70.716,
      "arg_perigee_deg": 151.036,
      "mean_anomaly_deg": 209.0967,
      "mean_motion_rev_day": 14.9150803
    },
    {
      "epoch": "2026-04-21T23:24:35.101728Z",
      "apogee_km": 594.6569102668145,
      "perigee_km": 591.7870806227502,
      "latitude_deg": -5.238472042238548e-05,
      "longitude_deg": -130.0777823588061,
      "height_km": 597.4723915329523,
      "semi_major_axis_km": 6971.358995444782,
      "eccentricity": 0.00020583,
      "inclination_deg": 97.7589,
      "raan_deg": 71.1121,
      "arg_perigee_deg": 147.5228,
      "mean_anomaly_deg": 212.6117,
      "mean_motion_rev_day": 14.91511446
    },
    {
      "epoch": "2026-04-22T20:20:27.703968Z",
      "apogee_km": 594.6807357334092,
      "perigee_km": 591.7444032947296,
      "latitude_deg": -1.9502637541644183e-05,
      "longitude_deg": -84.0484819972889,
      "height_km": 597.472119633785,
      "semi_major_axis_km": 6971.349569514069,
      "eccentricity": 0.0002106,
      "inclination_deg": 97.7588,
      "raan_deg": 71.9702,
      "arg_perigee_deg": 146.1816,
      "mean_anomaly_deg": 213.9537,
      "mean_motion_rev_day": 14.91514471
    },
    {
      "epoch": "2026-04-24T15:48:48.794112Z",
      "apogee_km": 594.7392243682598,
      "perigee_km": 591.6481363445901,
      "latitude_deg": 2.6662965673040145e-05,
      "longitude_deg": -16.13961975800947,
      "height_km": 597.4768664097412,
      "semi_major_axis_km": 6971.330680356425,
      "eccentricity": 0.0002217,
      "inclination_deg": 97.7588,
      "raan_deg": 73.7523,
      "arg_perigee_deg": 143.5769,
      "mean_anomaly_deg": 216.5601,
      "mean_motion_rev_day": 14.91520533
    },
    {
      "epoch": "2026-04-25T12:44:40.858080Z",
      "apogee_km": 594.7730926352187,
      "perigee_km": 591.5858067544186,
      "latitude_deg": 9.209659565764443e-06,
      "longitude_deg": 29.892038150609203,
      "height_km": 597.4759432980738,
      "semi_major_axis_km": 6971.316449694818,
      "eccentricity": 0.0002286,
      "inclination_deg": 97.759,
      "raan_deg": 74.6105,
      "arg_perigee_deg": 142.0743,
      "mean_anomaly_deg": 218.0637,
      "mean_motion_rev_day": 14.915251
    },
    {
      "epoch": "2026-04-25T12:44:40.858944Z",
      "apogee_km": 594.7733714878768,
      "perigee_km": 591.5855279017605,
      "latitude_deg": 6.3812244744753545e-06,
      "longitude_deg": 29.892034924036757,
      "height_km": 597.476163309723,
      "semi_major_axis_km": 6971.316449694818,
      "eccentricity": 0.00022864,
      "inclination_deg": 97.759,
      "raan_deg": 74.6105,
      "arg_perigee_deg": 142.0743,
      "mean_anomaly_deg": 218.0637,
      "mean_motion_rev_day": 14.915251
    },
    {
      "epoch": "2026-04-27T19:29:14.832672Z",
      "apogee_km": 594.9349942286099,
      "perigee_km": 591.3629073074362,
      "latitude_deg": 1.0406050375254442e-06,
      "longitude_deg": -71.2538260537043,
      "height_km": 597.5117851510759,
      "semi_major_axis_km": 6971.285950768023,
      "eccentricity": 0.0002562,
      "inclination_deg": 97.7585,
      "raan_deg": 76.8544,
      "arg_perigee_deg": 137.8383,
      "mean_anomaly_deg": 222.3033,
      "mean_motion_rev_day": 14.91534888
    },
    {
      "epoch": "2026-04-28T08:22:05.082816Z",
      "apogee_km": 594.9636139019476,
      "perigee_km": 591.3343624165109,
      "latitude_deg": -7.401350449663237e-05,
      "longitude_deg": 95.53582044464181,
      "height_km": 597.5070152947085,
      "semi_major_axis_km": 6971.2859881592285,
      "eccentricity": 0.0002603,
      "inclination_deg": 97.7587,
      "raan_deg": 77.3824,
      "arg_perigee_deg": 136.6347,
      "mean_anomaly_deg": 223.5076,
      "mean_motion_rev_day": 14.91534876
    },
    {
      "epoch": "2026-04-29T18:10:46.500096Z",
      "apogee_km": 594.9838800253992,
      "perigee_km": 591.2626213035956,
      "latitude_deg": 5.286477722205274e-05,
      "longitude_deg": -51.63885725481431,
      "height_km": 597.4634948932624,
      "semi_major_axis_km": 6971.260250664497,
      "eccentricity": 0.0002669,
      "inclination_deg": 97.7592,
      "raan_deg": 78.7689,
      "arg_perigee_deg": 134.3937,
      "mean_anomaly_deg": 225.7501,
      "mean_motion_rev_day": 14.91543136
    },
    {
      "epoch": "2026-04-30T15:06:37.516896Z",
      "apogee_km": 595.0446841844605,
      "perigee_km": 591.1711816499337,
      "latitude_deg": 2.546296139853726e-05,
      "longitude_deg": -5.602722746750176,
      "height_km": 597.4473971063273,
      "semi_major_axis_km": 6971.244932917197,
      "eccentricity": 0.00027782,
      "inclination_deg": 97.7595,
      "raan_deg": 79.6272,
      "arg_perigee_deg": 132.2078,
      "mean_anomaly_deg": 227.9377,
      "mean_motion_rev_day": 14.91548052
    },
    {
      "epoch": "2026-05-02T08:58:18.520608Z",
      "apogee_km": 595.0953001450625,
      "perigee_km": 591.0436349461243,
      "latitude_deg": -3.5653955438830245e-08,
      "longitude_deg": 86.47384336239008,
      "height_km": 597.3649662573958,
      "semi_major_axis_km": 6971.206467545593,
      "eccentricity": 0.0002906,
      "inclination_deg": 97.76,
      "raan_deg": 81.3438,
      "arg_perigee_deg": 128.3726,
      "mean_anomaly_deg": 231.7754,
      "mean_motion_rev_day": 14.91560397
    },
    {
      "epoch": "2026-05-03T20:23:33.802656Z",
      "apogee_km": 595.1020815210777,
      "perigee_km": 590.9821146741015,
      "latitude_deg": -2.100471978631685e-05,
      "longitude_deg": -84.84191809945631,
      "height_km": 597.2877631692567,
      "semi_major_axis_km": 6971.179098097589,
      "eccentricity": 0.0002955,
      "inclination_deg": 97.7603,
      "raan_deg": 82.7964,
      "arg_perigee_deg": 125.9015,
      "mean_anomaly_deg": 234.2478,
      "mean_motion_rev_day": 14.91569181
    },
    {
      "epoch": "2026-05-04T20:32:35.624832Z",
      "apogee_km": 595.1231115651062,
      "perigee_km": 590.9292597926014,
      "latitude_deg": -5.477541337594334e-05,
      "longitude_deg": -87.10103547864918,
      "height_km": 597.2641428424303,
      "semi_major_axis_km": 6971.163185678854,
      "eccentricity": 0.0003008,
      "inclination_deg": 97.7604,
      "raan_deg": 83.7867,
      "arg_perigee_deg": 124.921,
      "mean_anomaly_deg": 235.2291,
      "mean_motion_rev_day": 14.91574288
    },
    {
      "epoch": "2026-05-05T20:41:37.181760Z",
      "apogee_km": 595.1043395114602,
      "perigee_km": 590.9146804589591,
      "latitude_deg": -5.129774158783715e-05,
      "longitude_deg": -89.35885000854218,
      "height_km": 597.1707047277091,
      "semi_major_axis_km": 6971.146509985209,
      "eccentricity": 0.0003005,
      "inclination_deg": 97.7601,
      "raan_deg": 84.7772,
      "arg_perigee_deg": 122.4414,
      "mean_anomaly_deg": 237.7095,
      "mean_motion_rev_day": 14.9157964
    },
    {
      "epoch": "2026-05-06T20:50:38.527008Z",
      "apogee_km": 595.1328943195276,
      "perigee_km": 590.8623772416477,
      "latitude_deg": -6.826987713984697e-05,
      "longitude_deg": -91.61597735684138,
      "height_km": 597.1354704610219,
      "semi_major_axis_km": 6971.134635780587,
      "eccentricity": 0.0003063,
      "inclination_deg": 97.7599,
      "raan_deg": 85.7675,
      "arg_perigee_deg": 121.025,
      "mean_anomaly_deg": 239.1269,
      "mean_motion_rev_day": 14.91583451
    },
    {
      "epoch": "2026-05-07T20:59:39.681312Z",
      "apogee_km": 595.1759335970482,
      "perigee_km": 590.7966739376216,
      "latitude_deg": 1.974471985796054e-05,
      "longitude_deg": -93.87232083681187,
      "height_km": 597.1055689225465,
      "semi_major_axis_km": 6971.123303767335,
      "eccentricity": 0.0003141,
      "inclination_deg": 97.7599,
      "raan_deg": 86.7578,
      "arg_perigee_deg": 119.6189,
      "mean_anomaly_deg": 240.5343,
      "mean_motion_rev_day": 14.91587088
    }
  ]
}